[
    {
        "Altitude(m)": 706935.0237476091,
        "Argument of Periapsis(deg)": 0.005695060593313534,
        "Eccentricity": 0.0,
        "Inclination(deg)": 45.0,
        "Latitude(deg)": 43.48387407111832,
        "Longitude(deg)": 109.00979478196517,
        "Mean Anomaly(deg)": 103.94840832374042,
        "RAAN(deg)": 99.99462402927091,
        "Satellite Name": "Constellation 1 446",
        "Satellite Number": 446,
        "Semi-Major Axis(m)": 7083131.272910544,
        "Time(s)": 95
    },
    {
        "Altitude(m)": 706931.8334074451,
        "Argument of Periapsis(deg)": 0.00575500859955894,
        "Eccentricity": 0.0,
        "Inclination(deg)": 45.0,
        "Latitude(deg)": 43.46956792948295,
        "Longitude(deg)": 109.08682476266922,
        "Mean Anomaly(deg)": 104.00910946399028,
        "RAAN(deg)": 99.99456744010533,
        "Satellite Name": "Constellation 1 446",
        "Satellite Number": 446,
        "Semi-Major Axis(m)": 7083131.272910544,
        "Time(s)": 96
    },
    {
        "Altitude(m)": 706928.6306552154,
        "Argument of Periapsis(deg)": 0.005814956605804345,
        "Eccentricity": 0.0,
        "Inclination(deg)": 45.0,
        "Latitude(deg)": 43.45520422762666,
        "Longitude(deg)": 109.16381659608258,
        "Mean Anomaly(deg)": 104.06981060424019,
        "RAAN(deg)": 99.99451085093976,
        "Satellite Name": "Constellation 1 446",
        "Satellite Number": 446,
        "Semi-Major Axis(m)": 7083131.272910544,
        "Time(s)": 97
    },
    {
        "Altitude(m)": 706925.415509876,
        "Argument of Periapsis(deg)": 0.00587490461204975,
        "Eccentricity": 0.0,
        "Inclination(deg)": 45.0,
        "Latitude(deg)": 43.44078302110644,
        "Longitude(deg)": 109.24076999790049,
        "Mean Anomaly(deg)": 104.13051174449011,
        "RAAN(deg)": 99.99445426177418,
        "Satellite Name": "Constellation 1 446",
        "Satellite Number": 446,
        "Semi-Major Axis(m)": 7083131.272910544,
        "Time(s)": 98
    },
    {
        "Altitude(m)": 706922.1879904586,
        "Argument of Periapsis(deg)": 0.005934852618295156,
        "Eccentricity": 0.0,
        "Inclination(deg)": 45.0,
        "Latitude(deg)": 43.42630436563451,
        "Longitude(deg)": 109.31768485246957,
        "Mean Anomaly(deg)": 104.19121288474003,
        "RAAN(deg)": 99.99439767260863,
        "Satellite Name": "Constellation 1 446",
        "Satellite Number": 446,
        "Semi-Major Axis(m)": 7083131.272910544,
        "Time(s)": 99
    },
    {
        "Altitude(m)": 706918.9481160752,
        "Argument of Periapsis(deg)": 0.005994800624540561,
        "Eccentricity": 0.0,
        "Inclination(deg)": 45.0,
        "Latitude(deg)": 43.41176831707732,
        "Longitude(deg)": 109.39456104469113,
        "Mean Anomaly(deg)": 104.25191402498992,
        "RAAN(deg)": 99.99434108344306,
        "Satellite Name": "Constellation 1 446",
        "Satellite Number": 446,
        "Semi-Major Axis(m)": 7083131.272910544,
        "Time(s)": 100
    },
    {
        "Altitude(m)": 706915.695905903,
        "Argument of Periapsis(deg)": 0.006054748630785968,
        "Eccentricity": 0.0,
        "Inclination(deg)": 45.0,
        "Latitude(deg)": 43.39717493145474,
        "Longitude(deg)": 109.47139846002148,
        "Mean Anomaly(deg)": 104.31261516523978,
        "RAAN(deg)": 99.99428449427748,
        "Satellite Name": "Constellation 1 446",
        "Satellite Number": 446,
        "Semi-Major Axis(m)": 7083131.272910544,
        "Time(s)": 101
    },
    {
        "Altitude(m)": 706912.4313791961,
        "Argument of Periapsis(deg)": 0.006114696637031373,
        "Eccentricity": 0.0,
        "Inclination(deg)": 45.0,
        "Latitude(deg)": 43.3825242649391,
        "Longitude(deg)": 109.54819698447292,
        "Mean Anomaly(deg)": 104.37331630548971,
        "RAAN(deg)": 99.99422790511191,
        "Satellite Name": "Constellation 1 446",
        "Satellite Number": 446,
        "Semi-Major Axis(m)": 7083131.272910544,
        "Time(s)": 102
    },
    {
        "Altitude(m)": 706909.1545552901,
        "Argument of Periapsis(deg)": 0.006174644643276778,
        "Eccentricity": 0.0,
        "Inclination(deg)": 45.0,
        "Latitude(deg)": 43.367816373854325,
        "Longitude(deg)": 109.62495650461388,
        "Mean Anomaly(deg)": 104.43401744573958,
        "RAAN(deg)": 99.99417131594636,
        "Satellite Name": "Constellation 1 446",
        "Satellite Number": 446,
        "Semi-Major Axis(m)": 7083131.272910544,
        "Time(s)": 103
    },
    {
        "Altitude(m)": 706905.8654535941,
        "Argument of Periapsis(deg)": 0.006234592649522184,
        "Eccentricity": 0.0,
        "Inclination(deg)": 45.0,
        "Latitude(deg)": 43.35305131467493,
        "Longitude(deg)": 109.70167673947228,
        "Mean Anomaly(deg)": 104.49471858598952,
        "RAAN(deg)": 99.99411472678078,
        "Satellite Name": "Constellation 1 446",
        "Satellite Number": 446,
        "Semi-Major Axis(m)": 7083131.272910544,
        "Time(s)": 104
    },
    {
        "Altitude(m)": 706902.5640935847,
        "Argument of Periapsis(deg)": 0.00629454065576759,
        "Eccentricity": 0.0,
        "Inclination(deg)": 45.0,
        "Latitude(deg)": 43.33822914402509,
        "Longitude(deg)": 109.7783579129254,
        "Mean Anomaly(deg)": 104.55541972623938,
        "RAAN(deg)": 99.99405813761521,
        "Satellite Name": "Constellation 1 446",
        "Satellite Number": 446,
        "Semi-Major Axis(m)": 7083131.272910544,
        "Time(s)": 105
    },
    {
        "Altitude(m)": 706899.2504948152,
        "Argument of Periapsis(deg)": 0.006354488662012995,
        "Eccentricity": 0.0,
        "Inclination(deg)": 45.0,
        "Latitude(deg)": 43.323349918677906,
        "Longitude(deg)": 109.85499974511663,
        "Mean Anomaly(deg)": 104.61612086648928,
        "RAAN(deg)": 99.99400154844963,
        "Satellite Name": "Constellation 1 446",
        "Satellite Number": 446,
        "Semi-Major Axis(m)": 7083131.272910544,
        "Time(s)": 106
    },
    {
        "Altitude(m)": 706895.9246769191,
        "Argument of Periapsis(deg)": 0.006414436668258401,
        "Eccentricity": 0.0,
        "Inclination(deg)": 45.0,
        "Latitude(deg)": 43.308413695554286,
        "Longitude(deg)": 109.93160212484483,
        "Mean Anomaly(deg)": 104.67682200673917,
        "RAAN(deg)": 99.99394495928406,
        "Satellite Name": "Constellation 1 446",
        "Satellite Number": 446,
        "Semi-Major Axis(m)": 7083131.272910544,
        "Time(s)": 107
    },
    {
        "Altitude(m)": 706892.5866595972,
        "Argument of Periapsis(deg)": 0.0064743846745038075,
        "Eccentricity": 0.0,
        "Inclination(deg)": 45.0,
        "Latitude(deg)": 43.293420531722184,
        "Longitude(deg)": 110.0081649414677,
        "Mean Anomaly(deg)": 104.7375231469891,
        "RAAN(deg)": 99.99388837011848,
        "Satellite Name": "Constellation 1 446",
        "Satellite Number": 446,
        "Semi-Major Axis(m)": 7083131.272910544,
        "Time(s)": 108
    },
    {
        "Altitude(m)": 706889.2364626295,
        "Argument of Periapsis(deg)": 0.0065343326807492125,
        "Eccentricity": 0.0,
        "Inclination(deg)": 45.0,
        "Latitude(deg)": 43.27837048439554,
        "Longitude(deg)": 110.08468808490233,
        "Mean Anomaly(deg)": 104.79822428723901,
        "RAAN(deg)": 99.99383178095293,
        "Satellite Name": "Constellation 1 446",
        "Satellite Number": 446,
        "Semi-Major Axis(m)": 7083131.272910544,
        "Time(s)": 109
    },
    {
        "Altitude(m)": 706885.8741058701,
        "Argument of Periapsis(deg)": 0.0065942806869946176,
        "Eccentricity": 0.0,
        "Inclination(deg)": 45.0,
        "Latitude(deg)": 43.26326361093344,
        "Longitude(deg)": 110.16117144562536,
        "Mean Anomaly(deg)": 104.85892542748887,
        "RAAN(deg)": 99.99377519178736,
        "Satellite Name": "Constellation 1 446",
        "Satellite Number": 446,
        "Semi-Major Axis(m)": 7083131.272910544,
        "Time(s)": 110
    },
    {
        "Altitude(m)": 706882.4996092406,
        "Argument of Periapsis(deg)": 0.006654228693240024,
        "Eccentricity": 0.0,
        "Inclination(deg)": 45.0,
        "Latitude(deg)": 43.2480999688393,
        "Longitude(deg)": 110.23761474657668,
        "Mean Anomaly(deg)": 104.91962656773879,
        "RAAN(deg)": 99.99371860262178,
        "Satellite Name": "Constellation 1 446",
        "Satellite Number": 446,
        "Semi-Major Axis(m)": 7083131.272910544,
        "Time(s)": 111
    },
    {
        "Altitude(m)": 706879.112992743,
        "Argument of Periapsis(deg)": 0.006714176699485429,
        "Eccentricity": 0.0,
        "Inclination(deg)": 45.0,
        "Latitude(deg)": 43.232879615759586,
        "Longitude(deg)": 110.31401821554826,
        "Mean Anomaly(deg)": 104.98032770798868,
        "RAAN(deg)": 99.99366201345622,
        "Satellite Name": "Constellation 1 446",
        "Satellite Number": 446,
        "Semi-Major Axis(m)": 7083131.272910544,
        "Time(s)": 112
    },
    {
        "Altitude(m)": 706875.7142764507,
        "Argument of Periapsis(deg)": 0.006774124705730835,
        "Eccentricity": 0.0,
        "Inclination(deg)": 45.0,
        "Latitude(deg)": 43.21760260948336,
        "Longitude(deg)": 110.39038157660133,
        "Mean Anomaly(deg)": 105.04102884823861,
        "RAAN(deg)": 99.99360542429064,
        "Satellite Name": "Constellation 1 446",
        "Satellite Number": 446,
        "Semi-Major Axis(m)": 7083131.272910544,
        "Time(s)": 113
    }
]